CCSDS_OMM_VERS = 2.0
CREATION_DATE  = 
ORIGINATOR     = 

OBJECT_NAME    = UNKNOWN
OBJECT_ID      = 
CENTER_NAME    = EARTH
REF_FRAME      = TEME
TIME_SYSTEM    = UTC
MEAN_ELEMENT_THEORY = SGP/SGP4

EPOCH          = 2025-11-02T12:11:41.983584
MEAN_MOTION    = 2.99863509
ECCENTRICITY   = .6569285
INCLINATION    = 2.1897
RA_OF_ASC_NODE = 268.9464
ARG_OF_PERICENTER = 8.9349
MEAN_ANOMALY   = 87.8885

EPHEMERIS_TYPE = 0
CLASSIFICATION_TYPE = U
NORAD_CAT_ID   = 84932
ELEMENT_SET_NO = 999
REV_AT_EPOCH   = 13057
BSTAR          = .74736E-2
MEAN_MOTION_DOT = .904E-5
MEAN_MOTION_DDOT = 0

CCSDS_OMM_VERS = 2.0
CREATION_DATE  = 
ORIGINATOR     = 

OBJECT_NAME    = UNKNOWN
OBJECT_ID      = 
CENTER_NAME    = EARTH
REF_FRAME      = TEME
TIME_SYSTEM    = UTC
MEAN_ELEMENT_THEORY = SGP/SGP4

EPOCH          = 2025-11-02T03:37:13.136736
MEAN_MOTION    = 14.40939607
ECCENTRICITY   = .0045966
INCLINATION    = 98.4163
RA_OF_ASC_NODE = 277.8100
ARG_OF_PERICENTER = 285.2790
MEAN_ANOMALY   = 132.8832

EPHEMERIS_TYPE = 0
CLASSIFICATION_TYPE = U
NORAD_CAT_ID   = 85004
ELEMENT_SET_NO = 999
REV_AT_EPOCH   = 62505
BSTAR          = .5042E-3
MEAN_MOTION_DOT = .1595E-4
MEAN_MOTION_DDOT = 0

CCSDS_OMM_VERS = 2.0
CREATION_DATE  = 
ORIGINATOR     = 

OBJECT_NAME    = UNKNOWN
OBJECT_ID      = 
CENTER_NAME    = EARTH
REF_FRAME      = TEME
TIME_SYSTEM    = UTC
MEAN_ELEMENT_THEORY = SGP/SGP4

EPOCH          = 2025-10-25T13:54:18.523584
MEAN_MOTION    = 13.74894221
ECCENTRICITY   = .002766
INCLINATION    = 99.2507
RA_OF_ASC_NODE = 161.9637
ARG_OF_PERICENTER = 18.6065
MEAN_ANOMALY   = 10.8836

EPHEMERIS_TYPE = 0
CLASSIFICATION_TYPE = U
NORAD_CAT_ID   = 85010
ELEMENT_SET_NO = 999
REV_AT_EPOCH   = 59730
BSTAR          = .14906E-2
MEAN_MOTION_DOT = .1382E-4
MEAN_MOTION_DDOT = 0

CCSDS_OMM_VERS = 2.0
CREATION_DATE  = 
ORIGINATOR     = 

OBJECT_NAME    = UNKNOWN
OBJECT_ID      = 
CENTER_NAME    = EARTH
REF_FRAME      = TEME
TIME_SYSTEM    = UTC
MEAN_ELEMENT_THEORY = SGP/SGP4

EPOCH          = 2025-11-02T04:50:22.853760
MEAN_MOTION    = 14.62208967
ECCENTRICITY   = .0014773
INCLINATION    = 74.0462
RA_OF_ASC_NODE = 115.7756
ARG_OF_PERICENTER = 29.0178
MEAN_ANOMALY   = 331.1807

EPHEMERIS_TYPE = 0
CLASSIFICATION_TYPE = U
NORAD_CAT_ID   = 85015
ELEMENT_SET_NO = 999
REV_AT_EPOCH   = 63668
BSTAR          = .14023E-3
MEAN_MOTION_DOT = .677E-5
MEAN_MOTION_DDOT = 0

CCSDS_OMM_VERS = 2.0
CREATION_DATE  = 
ORIGINATOR     = 

OBJECT_NAME    = UNKNOWN
OBJECT_ID      = 
CENTER_NAME    = EARTH
REF_FRAME      = TEME
TIME_SYSTEM    = UTC
MEAN_ELEMENT_THEORY = SGP/SGP4

EPOCH          = 2025-11-01T23:26:03.330816
MEAN_MOTION    = 14.71119985
ECCENTRICITY   = .00043
INCLINATION    = 99.8538
RA_OF_ASC_NODE = 312.8809
ARG_OF_PERICENTER = 76.2572
MEAN_ANOMALY   = 313.8716

EPHEMERIS_TYPE = 0
CLASSIFICATION_TYPE = U
NORAD_CAT_ID   = 85023
ELEMENT_SET_NO = 999
REV_AT_EPOCH   = 62283
BSTAR          = .44285E-2
MEAN_MOTION_DOT = .27291E-3
MEAN_MOTION_DDOT = 0

CCSDS_OMM_VERS = 2.0
CREATION_DATE  = 
ORIGINATOR     = 

OBJECT_NAME    = UNKNOWN
OBJECT_ID      = 
CENTER_NAME    = EARTH
REF_FRAME      = TEME
TIME_SYSTEM    = UTC
MEAN_ELEMENT_THEORY = SGP/SGP4

EPOCH          = 2025-11-02T09:46:38.132256
MEAN_MOTION    = 13.74216793
ECCENTRICITY   = .0180858
INCLINATION    = 66.0411
RA_OF_ASC_NODE = 200.2737
ARG_OF_PERICENTER = 211.7209
MEAN_ANOMALY   = 147.2859

EPHEMERIS_TYPE = 0
CLASSIFICATION_TYPE = U
NORAD_CAT_ID   = 85027
ELEMENT_SET_NO = 999
REV_AT_EPOCH   = 59907
BSTAR          = .18068E-3
MEAN_MOTION_DOT = .113E-5
MEAN_MOTION_DDOT = 0

CCSDS_OMM_VERS = 2.0
CREATION_DATE  = 
ORIGINATOR     = 

OBJECT_NAME    = UNKNOWN
OBJECT_ID      = 
CENTER_NAME    = EARTH
REF_FRAME      = TEME
TIME_SYSTEM    = UTC
MEAN_ELEMENT_THEORY = SGP/SGP4

EPOCH          = 2025-11-01T14:26:49.477920
MEAN_MOTION    = 13.42461465
ECCENTRICITY   = .0110784
INCLINATION    = 102.2466
RA_OF_ASC_NODE = 262.3973
ARG_OF_PERICENTER = 88.4152
MEAN_ANOMALY   = 272.9654

EPHEMERIS_TYPE = 0
CLASSIFICATION_TYPE = U
NORAD_CAT_ID   = 85047
ELEMENT_SET_NO = 999
REV_AT_EPOCH   = 57113
BSTAR          = .26233E-1
MEAN_MOTION_DOT = .15352E-3
MEAN_MOTION_DDOT = 0

CCSDS_OMM_VERS = 2.0
CREATION_DATE  = 
ORIGINATOR     = 

OBJECT_NAME    = UNKNOWN
OBJECT_ID      = 
CENTER_NAME    = EARTH
REF_FRAME      = TEME
TIME_SYSTEM    = UTC
MEAN_ELEMENT_THEORY = SGP/SGP4

EPOCH          = 2025-10-30T20:52:20.811648
MEAN_MOTION    = 12.76650631
ECCENTRICITY   = .0279658
INCLINATION    = 102.3941
RA_OF_ASC_NODE = 283.7788
ARG_OF_PERICENTER = 278.7139
MEAN_ANOMALY   = 107.9932

EPHEMERIS_TYPE = 0
CLASSIFICATION_TYPE = U
NORAD_CAT_ID   = 85061
ELEMENT_SET_NO = 999
REV_AT_EPOCH   = 55031
BSTAR          = .17956E-1
MEAN_MOTION_DOT = .4537E-4
MEAN_MOTION_DDOT = 0

CCSDS_OMM_VERS = 2.0
CREATION_DATE  = 
ORIGINATOR     = 

OBJECT_NAME    = UNKNOWN
OBJECT_ID      = 
CENTER_NAME    = EARTH
REF_FRAME      = TEME
TIME_SYSTEM    = UTC
MEAN_ELEMENT_THEORY = SGP/SGP4

EPOCH          = 2025-11-01T06:12:19.755936
MEAN_MOTION    = 14.40655942
ECCENTRICITY   = .0012448
INCLINATION    = 74.0444
RA_OF_ASC_NODE = 299.4709
ARG_OF_PERICENTER = 184.9025
MEAN_ANOMALY   = 193.8758

EPHEMERIS_TYPE = 0
CLASSIFICATION_TYPE = U
NORAD_CAT_ID   = 85100
ELEMENT_SET_NO = 999
REV_AT_EPOCH   = 62737
BSTAR          = .17015E-3
MEAN_MOTION_DOT = .517E-5
MEAN_MOTION_DDOT = 0

CCSDS_OMM_VERS = 2.0
CREATION_DATE  = 
ORIGINATOR     = 

OBJECT_NAME    = UNKNOWN
OBJECT_ID      = 
CENTER_NAME    = EARTH
REF_FRAME      = TEME
TIME_SYSTEM    = UTC
MEAN_ELEMENT_THEORY = SGP/SGP4

EPOCH          = 2025-11-02T12:55:02.404992
MEAN_MOTION    = 13.72820205
ECCENTRICITY   = .0010515
INCLINATION    = 100.0566
RA_OF_ASC_NODE = 45.4242
ARG_OF_PERICENTER = 116.8910
MEAN_ANOMALY   = 263.8643

EPHEMERIS_TYPE = 0
CLASSIFICATION_TYPE = U
NORAD_CAT_ID   = 85106
ELEMENT_SET_NO = 999
REV_AT_EPOCH   = 59755
BSTAR          = .75879E-3
MEAN_MOTION_DOT = .65E-5
MEAN_MOTION_DDOT = 0

CCSDS_OMM_VERS = 2.0
CREATION_DATE  = 
ORIGINATOR     = 

OBJECT_NAME    = UNKNOWN
OBJECT_ID      = 
CENTER_NAME    = EARTH
REF_FRAME      = TEME
TIME_SYSTEM    = UTC
MEAN_ELEMENT_THEORY = SGP/SGP4

EPOCH          = 2025-11-01T20:39:25.979040
MEAN_MOTION    = 14.76024552
ECCENTRICITY   = .0008699
INCLINATION    = 98.4057
RA_OF_ASC_NODE = 168.1885
ARG_OF_PERICENTER = 286.8749
MEAN_ANOMALY   = 73.1505

EPHEMERIS_TYPE = 0
CLASSIFICATION_TYPE = U
NORAD_CAT_ID   = 85151
ELEMENT_SET_NO = 999
REV_AT_EPOCH   = 47349
BSTAR          = .28412E-2
MEAN_MOTION_DOT = .19581E-3
MEAN_MOTION_DDOT = 0

CCSDS_OMM_VERS = 2.0
CREATION_DATE  = 
ORIGINATOR     = 

OBJECT_NAME    = UNKNOWN
OBJECT_ID      = 
CENTER_NAME    = EARTH
REF_FRAME      = TEME
TIME_SYSTEM    = UTC
MEAN_ELEMENT_THEORY = SGP/SGP4

EPOCH          = 2025-10-30T15:59:54.934656
MEAN_MOTION    = 13.71433851
ECCENTRICITY   = .0216984
INCLINATION    = 99.8538
RA_OF_ASC_NODE = 83.4896
ARG_OF_PERICENTER = 64.6659
MEAN_ANOMALY   = 309.8471

EPHEMERIS_TYPE = 0
CLASSIFICATION_TYPE = U
NORAD_CAT_ID   = 85210
ELEMENT_SET_NO = 999
REV_AT_EPOCH   = 59625
BSTAR          = .84961E-3
MEAN_MOTION_DOT = .858E-5
MEAN_MOTION_DDOT = 0

