UNKNOWN                 
1 84932U          25306.50812481  .00000904  00000+0  74736-2 0  9992
2 84932   2.1897 268.9464 6569285   8.9349  87.8885  2.99863509130579
UNKNOWN                 
1 85004U          25306.15084649  .00001595  00000+0  50420-3 0  9993
2 85004  98.4163 277.8100 0045966 285.2790 132.8832 14.40939607625056
UNKNOWN                 
1 85010U          25298.57938106  .00001382  00000+0  14906-2 0  9994
2 85010  99.2507 161.9637 0027660  18.6065  10.8836 13.74894221597309
UNKNOWN                 
1 85015U          25306.20165340  .00000677  00000+0  14023-3 0  9998
2 85015  74.0462 115.7756 0014773  29.0178 331.1807 14.62208967636682
UNKNOWN                 
1 85023U          25305.97642744  .00027291  00000+0  44285-2 0  9991
2 85023  99.8538 312.8809 0004300  76.2572 313.8716 14.71119985622835
UNKNOWN                 
1 85027U          25306.40738579  .00000113  00000+0  18068-3 0  9991
2 85027  66.0411 200.2737 0180858 211.7209 147.2859 13.74216793599074
UNKNOWN                 
1 85047U          25305.60196155  .00015352  00000+0  26233-1 0  9994
2 85047 102.2466 262.3973 0110784  88.4152 272.9654 13.42461465571136
UNKNOWN                 
1 85061U          25303.86968532  .00004537  00000+0  17956-1 0  9997
2 85061 102.3941 283.7788 0279658 278.7139 107.9932 12.76650631550311
UNKNOWN                 
1 85100U          25305.25856199  .00000517  00000+0  17015-3 0  9993
2 85100  74.0444 299.4709 0012448 184.9025 193.8758 14.40655942627373
UNKNOWN                 
1 85106U          25306.53822228  .00000650  00000+0  75879-3 0  9997
2 85106 100.0566  45.4242 0010515 116.8910 263.8643 13.72820205597552
UNKNOWN                 
1 85151U          25305.86071735  .00019581  00000+0  28412-2 0  9994
2 85151  98.4057 168.1885 0008699 286.8749  73.1505 14.76024552473492
UNKNOWN                 
1 85210U          25303.66660804  .00000858  00000+0  84961-3 0  9996
2 85210  99.8538  83.4896 0216984  64.6659 309.8471 13.71433851596259
